{"features":[{"geometry":{"type":"MultiPolygon","coordinates":[[[[91.209438,29.756891],[91.212106,29.739766],[91.242774,29.713127],[91.247838,29.693393],[91.27804,29.681429],[91.267598,29.654817],[91.272006,29.644988],[91.269747,29.636319],[91.280796,29.611379],[91.277911,29.599463],[91.288161,29.590969],[91.301984,29.569079],[91.281362,29.543742],[91.284118,29.5318],[91.27539,29.52447],[91.222826,29.52208],[91.215798,29.529629],[91.202891,29.520815],[91.174,29.513172],[91.163067,29.530226],[91.164007,29.544122],[91.155515,29.562354],[91.11173,29.606333],[91.1058,29.646997],[91.095185,29.646858],[91.084501,29.639494],[91.07155,29.645703],[91.052168,29.629831],[91.020177,29.63117],[91.025687,29.647875],[91.042678,29.65711],[91.042337,29.66261],[91.026463,29.677654],[91.029828,29.697077],[91.041709,29.708027],[91.029617,29.719947],[91.013037,29.727242],[91.02789,29.76395],[91.012057,29.776193],[91.018,29.78354],[91.096385,29.771176],[91.113214,29.787763],[91.122297,29.784484],[91.151847,29.802885],[91.170771,29.792426],[91.192607,29.787175],[91.209438,29.756891]]]]},"type":"Feature","properties":{"name":"城关区","gb":"156540102"}}],"type":"FeatureCollection","crs":{"type":"name","properties":{"name":"urn:ogc:def:crs:EPSG::4490"}}}